HELIOS 1B               
1 25977U 99064A   21123.88412663  .00000047  00000-0  13041-4 0  9999
2 25977  98.3142 296.6537 0002225  63.3301 296.8138 14.82551830422590
TERRA                   
1 25994U 99068A   21124.21040118  .00000066  00000-0  24696-4 0  9991
2 25994  98.1772 199.4401 0001402 100.1952 318.3222 14.57128226137020
SL-16 R/B               
1 26070U 00006B   21123.50983099  .00000202  00000-0  12772-3 0  9999
2 26070  71.0036 220.6868 0016812 349.7509  10.3268 14.15476197 97923
MTI                     
1 26102U 00014A   21123.67821011  .00009052  00000-0  11206-3 0  9990
2 26102  97.4700  27.9030 0008215 117.5263 242.6867 15.60297564174363
TITAN 4B R/B            
1 26474U 00047B   21123.83118536  .00000223  00000-0  30043-4 0  9999
2 26474  67.9932 273.7176 0058404 209.5633 150.2205 14.96136984127166
ENVISAT                 
1 27386U 02009A   21124.25412368  .00000045  00000-0  28475-4 0  9997
2 27386  98.1482 120.5708 0001334  85.4985 285.3977 14.38023979  4723
IDEFIX & ARIANE 42P R/B 
1 27422U 02021B   21124.14589749  .00000022  00000-0  25102-4 0  9997
2 27422  98.3988  78.7245 0012494   9.7686 350.3737 14.29317331989089
AQUA                    
1 27424U 02022A   21124.21494625  .00000111  00000-0  34590-4 0  9996
2 27424  98.2068  66.1799 0002476  75.0998 259.3661 14.57119238 10621
CZ-4B R/B               
1 27432U 02024C   21124.07450639 -.00000020  00000-0  13614-4 0  9992
2 27432  99.0876 137.7341 0050287 353.1809  74.9501 14.14107715979042
MIDORI II (ADEOS-II)    
1 27597U 02056A   21124.07640172  .00000059  00000-0  41475-4 0  9999
2 27597  98.5611  70.2848 0001984 104.5703 255.5698 14.27496732957559
H-2A R/B                
1 27601U 02056E   21123.84913043 -.00000021  00000-0  70990-5 0  9994
2 27601  98.1932 148.5505 0073006  43.7456 128.3418 14.31991432960541
CZ-4B R/B               
1 28059U 03049C   21123.82768768  .00000019  00000-0  16481-4 0  9995
2 28059  98.4939  50.0520 0048973 238.5456 121.0947 14.52648558929321
CZ-2C R/B               
1 28222U 04012C   21124.18070155  .00000845  00000-0  53693-4 0  9997
2 28222  97.7239  94.5529 0047120  14.7976 355.8176 15.10839153934442
SL-16 R/B               
1 28353U 04021B   21123.89939261 -.00000331  00000-0 -14833-3 0  9995
2 28353  71.0018 347.2567 0006654 226.8954 133.1612 14.14242246872443
CZ-4B R/B               
1 28415U 04035C   21124.14920625  .00000210  00000-0  17888-4 0  9990
2 28415  97.5695 167.4187 0050726 340.2523  19.6740 15.07096625911937
CZ-2C R/B               
1 28480U 04046B   21123.92676368 -.00000017  00000-0  87002-5 0  9993
2 28480  98.0525 139.5165 0141760 356.3387  64.2944 14.25751182856089
ARIANE 5 R/B            
1 28499U 04049H   21123.70267554  .00000067  00000-0  15754-4 0  9993
2 28499  98.0651 232.7246 0091078 318.9764 177.3973 14.80114874883466
CZ-2D R/B               
1 28738U 05024B   21123.78385085  .00000573  00000-0  36594-4 0  9998
2 28738  97.3635 141.3961 0012636 149.4230 210.7741 15.12372963869812
SUZAKU (ASTRO-EII)      
1 28773U 05025A   21123.60173424  .00001293  00000-0  57203-4 0  9991
2 28773  31.3812  93.9171 0004609 193.3240 166.7286 15.18319984872640
ALOS (DAICHI)           
1 28931U 06002A   21123.95974943  .00000201  00000-0  48039-4 0  9991
2 28931  97.8848 100.6588 0001681 103.7198 256.4193 14.62832006814557
H-2A R/B                
1 28932U 06002B   21123.94204568  .00000508  00000-0  52359-4 0  9990
2 28932  98.3300 138.3377 0088100 354.0848  65.8873 14.92534394828942
AKARI (ASTRO-F)         
1 28939U 06005A   21124.04019776  .00003517  00000-0  89312-4 0  9999
2 28939  98.2466 142.0046 0086207 281.1808  77.9752 15.36753463830108
RESURS-DK 1             
1 29228U 06021A   21124.21563191  .00000152  00000-0  18754-4 0  9997
2 29228  69.9349  91.3464 0006771 305.7426  54.3105 15.02683724820927
GENESIS 1               
1 29252U 06029A   21124.10611804  .00000618  00000-0  39301-4 0  9993
2 29252  64.5223 332.4718 0038820 327.9404  31.9358 15.18628088816867
CZ-4B R/B               
1 29507U 06046C   21123.82159189  .00001185  00000-0  96019-4 0  9995
2 29507  97.7314 149.9423 0047538 164.8166 195.4498 15.00815254793412
CZ-2C R/B               
1 31114U 07010B   21124.13040322  .00000040  00000-0  36779-4 0  9993
2 31114  98.2354 320.9554 0060702  52.8354 307.8346 14.19358923728512
COSMO-SKYMED 1          
1 31598U 07023A   21124.08532827  .00000281  00000-0  41876-4 0  9994
2 31598  97.8904 308.6071 0001513  86.9064 273.2320 14.82153150752321
GENESIS 2               
1 31789U 07028A   21124.11099178  .00000375  00000-0  28526-4 0  9993
2 31789  64.5060  14.7651 0013106 201.8584 158.1981 15.17746103763817
COSMOS 2428             
1 31792U 07029A   21123.99648340  .00000222  00000-0  14665-3 0  9993
2 31792  70.8942 319.4039 0009718 288.9446  71.0621 14.12257566714120
SL-16 R/B               
1 31793U 07029B   21123.93142719 -.00000123  00000-0 -39422-4 0  9998
2 31793  70.9757 293.1468 0002232 262.8842 206.8681 14.14449742714973
KORONAS-FOTON           
1 33504U 09003A   21123.93458220  .00000860  00000-0  43058-4 0  9997
2 33504  82.4410 263.8551 0017497 248.2834 111.6536 15.15960778676039
H-2A R/B                
1 38341U 12025E   21123.76372665  .00000164  00000-0  26879-4 0  9997
2 38341  98.5275 306.1942 0054140 283.3927  76.1254 14.84212415484878
CUSAT 2 & FALCON 9 R/B  
1 39271U 13055G   21124.14090524  .00003110  00000-0  73563-4 0  9994
2 39271  80.9636 281.0491 0571068 283.1041  70.7040 14.52056951397204
SL-4 R/B                
1 39679U 14021B   21124.09027850  .00000732  00000-0  52753-4 0  9991
2 39679  51.6173  58.9518 0170231 337.4440  21.9109 15.06927048387680
ALOS-2                  
1 39766U 14029A   21124.15848071  .00000220  00000-0  36359-4 0  9995
2 39766  97.9199 222.1542 0001627  89.9522 270.1878 14.79474495375110
CZ-2C R/B               
1 40306U 14071B   21123.78302512  .00005453  00000-0  10579-3 0  9995
2 40306  97.3669  80.4860 0016251  79.3267 280.9812 15.47962972363341
SL-27 R/B               
1 40354U 14084B   21124.14089958  .00001371  00000-0  33779-4 0  9992
2 40354  74.7371  84.2994 0035283 112.6029 247.8923 15.41014848357911
YAOGAN 29               
1 41038U 15069A   21124.13928101  .00000022  00000-0  98574-5 0  9994
2 41038  98.0374 118.0798 0000874  55.3962 304.7332 14.80500595293724
ASTRO-H (HITOMI)        
1 41337U 16012A   21123.74630732  .00000293  00000-0  16778-4 0  9996
2 41337  31.0042 138.7669 0012315 356.3870   3.6675 14.98828617285594
HXMT (HUIYAN)           
1 42758U 17034A   21124.09897554  .00000199  00000-0  25913-4 0  9991
2 42758  43.0173  76.5780 0010037 247.6912 177.1978 15.09157940214313
CZ-2C R/B               
1 43521U 18054D   21123.69728837  .00000914  00000-0  51281-4 0  9997
2 43521  35.1544   5.7662 0081129  62.9413 297.9552 15.11456095157628
AEOLUS                  
1 43600U 18066A   21124.15971281  .00035129  00000-0  13824-3 0  9999
2 43600  96.7172 131.6841 0004954  99.2946 260.8887 15.86802990156225
SAOCOM 1A               
1 43641U 18076A   21124.16130296  .00000020  00000-0  90223-5 0  9991
2 43641  97.8906 311.7234 0001503  83.5676 276.5698 14.82151285139108
CREW DRAGON DEMO-1 DEB  
1 44064U 19011B   21124.13977518  .00085314  00000-0  31636-3 0  9994
2 44064  51.6225 109.7996 0002929  79.9148 280.2187 15.87360974123365
SAOCOM 1B               
1 46265U 20059A   21124.12495823 -.00000298  00000-0 -30869-4 0  9994
2 46265  97.8889 310.7481 0001772  84.4209 275.7178 14.82153770 36499
CZ-2F R/B               
1 46390U 20063B   21123.58998966  .00107181  15965-4  21483-3 0  9991
2 46390  50.1971 207.0497 0010095 307.6764  52.3310 15.99453549 38283
2020-063G               
1 46395U 20063G   21123.80785709  .00023300  00000-0  96760-4 0  9991
2 46395  50.2025 215.0225 0009488 278.2076  81.7831 15.85562490 38195
